{
  "type": "FeatureCollection",
  "features": [
    {
      "type": "Feature",
      "properties": {
        "norad_id": 66954,
        "name": "HULIANWANG DIGUI-115",
        "group": "last-30-days",
        "lat": -43.597817152055775,
        "lon": 164.79359477196823,
        "alt_km": 1030.651279840652,
        "timestamp": "2025-12-25T16:53:13.374275+00:00",
        "meta_object_name": "HULIANWANG DIGUI-115",
        "meta_object_id": "2025-287B",
        "meta_epoch": "2025-12-24T22:10:56.489088",
        "meta_mean_motion": 13.63539042,
        "meta_eccentricity": 0.0003385,
        "meta_inclination": 86.5036,
        "meta_ra_of_asc_node": 341.7372,
        "meta_arg_of_pericenter": 109.9724,
        "meta_mean_anomaly": 250.1798,
        "meta_ephemeris_type": 0,
        "meta_classification_type": "U",
        "meta_norad_cat_id": 66954,
        "meta_element_set_no": 999,
        "meta_rev_at_epoch": 219,
        "meta_bstar": 8.442119e-06,
        "meta_mean_motion_dot": 2.3e-07,
        "meta_mean_motion_ddot": 0,
        "tle_line1": "1 66954U 25287B   25358.92426492  .00000023  00000+0  84421-5 0  9993",
        "tle_line2": "2 66954  86.5036 341.7372 0003385 109.9724 250.1798 13.63539042  2198"
      },
      "geometry": {
        "type": "Point",
        "coordinates": [
          164.79359477196823,
          -43.597817152055775
        ]
      }
    },
    {
      "type": "Feature",
      "properties": {
        "norad_id": 66955,
        "name": "HULIANWANG DIGUI-116",
        "group": "last-30-days",
        "lat": -57.69192402082086,
        "lon": 166.9956098667552,
        "alt_km": 1028.6393875156273,
        "timestamp": "2025-12-25T16:53:13.374286+00:00",
        "meta_object_name": "HULIANWANG DIGUI-116",
        "meta_object_id": "2025-287C",
        "meta_epoch": "2025-12-24T23:52:55.515936",
        "meta_mean_motion": 13.64194122,
        "meta_eccentricity": 0.00016332,
        "meta_inclination": 86.4919,
        "meta_ra_of_asc_node": 341.6856,
        "meta_arg_of_pericenter": 94.3011,
        "meta_mean_anomaly": 265.8333,
        "meta_ephemeris_type": 0,
        "meta_classification_type": "U",
        "meta_norad_cat_id": 66955,
        "meta_element_set_no": 999,
        "meta_rev_at_epoch": 220,
        "meta_bstar": 0.0001652864,
        "meta_mean_motion_dot": 1.48e-06,
        "meta_mean_motion_ddot": 0,
        "tle_line1": "1 66955U 25287C   25358.99508699  .00000148  00000+0  16529-3 0  9991",
        "tle_line2": "2 66955  86.4919 341.6856 0001633  94.3011 265.8333 13.64194122  2201"
      },
      "geometry": {
        "type": "Point",
        "coordinates": [
          166.9956098667552,
          -57.69192402082086
        ]
      }
    },
    {
      "type": "Feature",
      "properties": {
        "norad_id": 66956,
        "name": "HULIANWANG DIGUI-117",
        "group": "last-30-days",
        "lat": -71.84903907335635,
        "lon": 172.20829347183778,
        "alt_km": 1026.8220959732516,
        "timestamp": "2025-12-25T16:53:13.374297+00:00",
        "meta_object_name": "HULIANWANG DIGUI-117",
        "meta_object_id": "2025-287D",
        "meta_epoch": "2025-12-24T22:03:29.281824",
        "meta_mean_motion": 13.64670553,
        "meta_eccentricity": 0.00010447,
        "meta_inclination": 86.4976,
        "meta_ra_of_asc_node": 341.7257,
        "meta_arg_of_pericenter": 103.5815,
        "meta_mean_anomaly": 256.5458,
        "meta_ephemeris_type": 0,
        "meta_classification_type": "U",
        "meta_norad_cat_id": 66956,
        "meta_element_set_no": 999,
        "meta_rev_at_epoch": 219,
        "meta_bstar": 9.025962e-06,
        "meta_mean_motion_dot": 2.4e-07,
        "meta_mean_motion_ddot": 0,
        "tle_line1": "1 66956U 25287D   25358.91908891  .00000024  00000+0  90260-5 0  9991",
        "tle_line2": "2 66956  86.4976 341.7257 0001044 103.5815 256.5458 13.64670553  2192"
      },
      "geometry": {
        "type": "Point",
        "coordinates": [
          172.20829347183778,
          -71.84903907335635
        ]
      }
    },
    {
      "type": "Feature",
      "properties": {
        "norad_id": 66957,
        "name": "HULIANWANG DIGUI-118",
        "group": "last-30-days",
        "lat": -68.83425931506812,
        "lon": -27.677158035947205,
        "alt_km": 1018.6580234028952,
        "timestamp": "2025-12-25T16:53:13.374308+00:00",
        "meta_object_name": "HULIANWANG DIGUI-118",
        "meta_object_id": "2025-287E",
        "meta_epoch": "2025-12-21T00:50:13.849728",
        "meta_mean_motion": 13.6751011,
        "meta_eccentricity": 0.00054729,
        "meta_inclination": 86.4946,
        "meta_ra_of_asc_node": 343.1304,
        "meta_arg_of_pericenter": 170.9065,
        "meta_mean_anomaly": 189.2194,
        "meta_ephemeris_type": 0,
        "meta_classification_type": "U",
        "meta_norad_cat_id": 66957,
        "meta_element_set_no": 999,
        "meta_rev_at_epoch": 166,
        "meta_bstar": 0.00013223305,
        "meta_mean_motion_dot": 1.28e-06,
        "meta_mean_motion_ddot": 0,
        "tle_line1": "1 66957U 25287E   25355.03488252  .00000128  00000+0  13223-3 0  9993",
        "tle_line2": "2 66957  86.4946 343.1304 0005472 170.9065 189.2194 13.67510110  1668"
      },
      "geometry": {
        "type": "Point",
        "coordinates": [
          -27.677158035947205,
          -68.83425931506812
        ]
      }
    },
    {
      "type": "Feature",
      "properties": {
        "norad_id": 66958,
        "name": "CZ-6A R/B",
        "group": "last-30-days",
        "lat": 85.78244124030665,
        "lon": 37.103783703915894,
        "alt_km": 832.7496243004553,
        "timestamp": "2025-12-25T16:53:13.374318+00:00",
        "meta_object_name": "CZ-6A R/B",
        "meta_object_id": "2025-287F",
        "meta_epoch": "2025-12-25T06:08:48.178752",
        "meta_mean_motion": 13.9492149,
        "meta_eccentricity": 0.01071132,
        "meta_inclination": 86.5065,
        "meta_ra_of_asc_node": 341.3424,
        "meta_arg_of_pericenter": 64.5345,
        "meta_mean_anomaly": 296.6864,
        "meta_ephemeris_type": 0,
        "meta_classification_type": "U",
        "meta_norad_cat_id": 66958,
        "meta_element_set_no": 999,
        "meta_rev_at_epoch": 228,
        "meta_bstar": 4.7232151e-05,
        "meta_mean_motion_dot": 8.5e-07,
        "meta_mean_motion_ddot": 0,
        "tle_line1": "1 66958U 25287F   25359.25611318  .00000085  00000+0  47232-4 0  9993",
        "tle_line2": "2 66958  86.5065 341.3424 0107113  64.5345 296.6864 13.94921490  2282"
      },
      "geometry": {
        "type": "Point",
        "coordinates": [
          37.103783703915894,
          85.78244124030665
        ]
      }
    },
    {
      "type": "Feature",
      "properties": {
        "norad_id": 66959,
        "name": "STARLINK-35887",
        "group": "last-30-days",
        "lat": -21.17576871074516,
        "lon": 63.613993654755234,
        "alt_km": 378.6271264089073,
        "timestamp": "2025-12-25T16:53:13.374328+00:00",
        "meta_object_name": "STARLINK-35887",
        "meta_object_id": "2025-288A",
        "meta_epoch": "2025-12-25T06:00:04.000320",
        "meta_mean_motion": 15.65582307,
        "meta_eccentricity": 0.0001438,
        "meta_inclination": 43,
        "meta_ra_of_asc_node": 90.8888,
        "meta_arg_of_pericenter": 264.3876,
        "meta_mean_anomaly": 25.7785,
        "meta_ephemeris_type": 0,
        "meta_classification_type": "U",
        "meta_norad_cat_id": 66959,
        "meta_element_set_no": 999,
        "meta_rev_at_epoch": 384,
        "meta_bstar": -0.02184603,
        "meta_mean_motion_dot": -0.01989009,
        "meta_mean_motion_ddot": 0,
        "tle_line1": "1 66959U 25288A   25359.25004630 -.01989009  00000+0 -21846-1 0  9993",
        "tle_line2": "2 66959  43.0000  90.8888 0001438 264.3876  25.7785 15.65582307  3848"
      },
      "geometry": {
        "type": "Point",
        "coordinates": [
          63.613993654755234,
          -21.17576871074516
        ]
      }
    },
    {
      "type": "Feature",
      "properties": {
        "norad_id": 66960,
        "name": "STARLINK-35879",
        "group": "last-30-days",
        "lat": -19.97983949422037,
        "lon": 65.2093862170154,
        "alt_km": 378.54683480553194,
        "timestamp": "2025-12-25T16:53:13.374338+00:00",
        "meta_object_name": "STARLINK-35879",
        "meta_object_id": "2025-288B",
        "meta_epoch": "2025-12-25T06:00:04.000320",
        "meta_mean_motion": 15.65579106,
        "meta_eccentricity": 0.00014917,
        "meta_inclination": 43.0001,
        "meta_ra_of_asc_node": 90.884,
        "meta_arg_of_pericenter": 264.0905,
        "meta_mean_anomaly": 27.9939,
        "meta_ephemeris_type": 0,
        "meta_classification_type": "U",
        "meta_norad_cat_id": 66960,
        "meta_element_set_no": 999,
        "meta_rev_at_epoch": 384,
        "meta_bstar": -0.021790014,
        "meta_mean_motion_dot": -0.01984339,
        "meta_mean_motion_ddot": 0,
        "tle_line1": "1 66960U 25288B   25359.25004630 -.01984339  00000+0 -21790-1 0  9994",
        "tle_line2": "2 66960  43.0001  90.8840 0001491 264.0905  27.9939 15.65579106  3846"
      },
      "geometry": {
        "type": "Point",
        "coordinates": [
          65.2093862170154,
          -19.97983949422037
        ]
      }
    }
  ]
}